[{"name":"Antoine - Thibault Sombardier","address":{"address_locality":"Paris","postal_code":"75116"},"stars":"1 étoile MICHELIN","promotions":"Menu Mardis Gourmands 109€","link":"https://www.lafourchette.com/restaurant/antoine-thibault-sombardier/2185"},
    {"name":"Penati Al Baretto - Alberico Penati","address":{"address_locality":"Paris","postal_code":"75008"},"stars":"1 étoile MICHELIN","promotions":"-20% off the \"à la carte\" menu!","link":"https://www.lafourchette.com/restaurant/penati-al-baretto-alberico-penati/36448"},
    {"name":"La Grande Cascade - Frédéric Robert","address":{"address_locality":"Paris","postal_code":"75016"},"stars":"1 étoile MICHELIN","promotions":"-40% off the \"à la carte\" menu","link":"https://www.lafourchette.com/restaurant/la-grande-cascade-frederic-robert/122"},
    {"name":"Pierre Orsi","address":{"address_locality":"Lyon","postal_code":"69006"},"stars":"1 étoile MICHELIN","promotions":"Menu Mardis Gourmands 150€","link":"https://www.lafourchette.com/restaurant/pierre-orsi/12900"},
    {"name":"Emporio Armani Ristorante","address":{"address_locality":"Paris","postal_code":"75006"},"stars":"1 étoile MICHELIN","promotions":"Prestige Menu 79€","link":"https://www.lafourchette.com/restaurant/emporio-armani-ristorante/275457"},
    {"name":"Le Baudelaire - Hôtel Le Burgundy Paris","address":{"address_locality":"Paris","postal_code":"75001"},"stars":"1 étoile MICHELIN","promotions":"-20% off the \"à la carte\" menu!","link":"https://www.lafourchette.com/restaurant/le-baudelaire-hotel-le-burgundy-paris/9228"},
    {"name":"Qui Plume la Lune - Jacky Ribault","address":{"address_locality":"Paris","postal_code":"75011"},"stars":"1 étoile MICHELIN","promotions":"Menu lunch prestige 90€ tout compris","link":"https://www.lafourchette.com/restaurant/qui-plume-la-lune-jacky-ribault/11295"},
    {"name":"Le Saint-Laurent","address":{"address_locality":"Paris","postal_code":"75008"},"stars":"1 étoile MICHELIN","promotions":"-30% off the \"à la carte\" menu!","link":"https://www.lafourchette.com/restaurant/le-saint-laurent/310489"},
    {"name":"La Scène Thélème","address":{"address_locality":"Paris","postal_code":"75017"},"stars":"1 étoile MICHELIN","promotions":"-50% off the \"à la carte\" menu!","link":"https://www.lafourchette.com/restaurant/la-scene-theleme/269585"},
    {"name":"Le Chiberta - Stéphane Laruelle - Guy Savoy","address":{"address_locality":"Paris","postal_code":"75008"},"stars":"1 étoile MICHELIN","promotions":"Menu Découverte 110€","link":"https://www.lafourchette.com/restaurant/le-chiberta-stephane-laruelle-guy-savoy/2828"},
    {"name":"Lasserre","address":{"address_locality":"Paris","postal_code":"75008"},"stars":"1 étoile MICHELIN","promotions":"Menu Mardis Gourmands 150€","link":"https://www.lafourchette.com/restaurant/lasserre/250"},
    {"name":"La Grange de Belle Eglise","address":{"address_locality":"Belle-Église","postal_code":"60540"},"stars":"1 étoile MICHELIN","promotions":"-30% sur la carte","link":"https://www.lafourchette.com/restaurant/la-grange-de-belle-eglise/28557"},
    {"name":"Maison Rostang","address":{"address_locality":"Paris","postal_code":"75017"},"stars":"2 étoiles MICHELIN","promotions":"Menu Prestige 115€ Tout Compris, le midi !","link":"https://www.lafourchette.com/restaurant/maison-rostang/405"},
    {"name":"Pur' - Jean-François Rouquette - Park Hyatt Paris-Vendôme","address":{"address_locality":"Paris","postal_code":"75002"},"stars":"1 étoile MICHELIN","promotions":"Menu \"Carnet de voyage\" Accord Mets & Vins 275€ & Menu \"Le Temps qui passe\" en Accord Mets & Vins 215€","link":"https://www.lafourchette.com/restaurant/pur--jean-francois-rouquette-park-hyatt-paris-vendome/4465"},
    {"name":"Leroy's Restaurant","address":{"address_locality":"Paris","postal_code":"75006"},"stars":"1 étoile MICHELIN","promotions":"-30% off the \"à la carte\" menu!","link":"https://www.lafourchette.com/restaurant/leroy-s-restaurant/297223"},
    {"name":"Benoit - Alain Ducasse","address":{"address_locality":"Paris","postal_code":"75004"},"stars":"1 étoile MICHELIN","promotions":"Menu Mardis Gourmands 125€","link":"https://www.lafourchette.com/restaurant/benoit-alain-ducasse/25896"},
    {"name":"Le France","address":{"address_locality":"Villers-le-Lac","postal_code":"25130"},"stars":"1 étoile MICHELIN","promotions":"-20% off the \"à la carte\" menu!","link":"https://www.lafourchette.com/restaurant/le-france/221"},
    {"name":"Manoir de la Boulaie - Laurent Saudeau","address":{"address_locality":"Haute-Goulaine","postal_code":"44115"},"stars":"2 étoiles MICHELIN","promotions":"-20% off the \"à la carte\" menu","link":"https://www.lafourchette.com/restaurant/manoir-de-la-boulaie-laurent-saudeau/3485"},
    {"name":"Le Violon d'Ingres - Christian Constant","address":{"address_locality":"Paris","postal_code":"75007"},"stars":"1 étoile MICHELIN","promotions":"Menu \"Prestige\"","link":"https://www.lafourchette.com/restaurant/le-violon-d-ingres-christian-constant/205737"},
    {"name":"Restaurant le Meurice Alain Ducasse","address":{"address_locality":"Paris","postal_code":"75001"},"stars":"2 étoiles MICHELIN","promotions":"Menu Prestige 225€","link":"https://www.lafourchette.com/restaurant/restaurant-le-meurice-alain-ducasse/275"},
    {"name":"La Fourchette du Printemps - Nicolas Mouton","address":{"address_locality":"Paris","postal_code":"75017"},"stars":"1 étoile MICHELIN","promotions":"Menu Gourmands 79€","link":"https://www.lafourchette.com/restaurant/la-fourchette-du-printemps-nicolas-mouton/5020"},
    {"name":"Restaurant Auguste - Gaël Orieux","address":{"address_locality":"Paris","postal_code":"75007"},"stars":"1 étoile MICHELIN","promotions":"Gourmand Menu 118€ All inclusive","link":"https://www.lafourchette.com/restaurant/restaurant-auguste-gael-orieux/26201"},
    {"name":"1912","address":{"address_locality":"Trouville-sur-Mer","postal_code":"14360"},"stars":"1 étoile MICHELIN","promotions":"20% off food","link":"https://www.lafourchette.com/restaurant/1912/60777"}]